STARLINK-3834           
1 52368U 22045AP  26068.63096933  .00000080  00000+0  23120-4 0  9997
2 52368  53.2171 189.3854 0001261  92.2551 267.8585 15.08834149215908
KUIPER-00148            
1 65769U 25217H   26068.27522507  .00015783  00000+0  98730-3 0  9995
2 65769  51.8794  26.5769 0008108 351.8096   8.2745 15.09536529 25078
